IRIDIUM 921 [-]         
1 24873U 97034E   24072.44966678  .00019606  00000+0  61158-3 0  9997
2 24873  86.3876 335.7712 0000591 244.4297 115.6892 15.33108002460330
IRIDIUM 26 [-]          
1 24903U 97043A   24072.91022251  .00000404  00000+0  13184-3 0  9995
2 24903  86.3940 304.1856 0002096  92.2977 267.8460 14.36237258390512
IRIDIUM 22 [-]          
1 24907U 97043E   24072.89157582  .00000411  00000+0  13711-3 0  9996
2 24907  86.3950 307.3549 0002055  85.7510 274.3921 14.35132871390593
DUMMY MASS 1 [-]        
1 24925U 97048A   24072.30253334  .00000607  00000+0  66160-4 0  9993
2 24925  86.3399 348.7543 0006614   4.5206 355.6077 14.86088184436510
DUMMY MASS 2 [-]        
1 24926U 97048B   24072.52548107  .00000623  00000+0  68350-4 0  9994
2 24926  86.3402 350.1763 0007817  11.9786 348.1623 14.85847742436334
IRIDIUM 29 [-]          
1 24944U 97051A   24072.43692085  .00000489  00000+0  16290-3 0  9998
2 24944  86.4002 337.4743 0002037  79.3108 280.8318 14.35590739387000
IRIDIUM 33 [-]          
1 24946U 97051C   24073.00200264  .00000352  00000+0  11836-3 0  9998
2 24946  86.3916 336.4971 0009253 132.4170 227.7810 14.34282862386622
IRIDIUM 28 [-]          
1 24948U 97051E   24072.43513964  .00000486  00000+0  15898-3 0  9990
2 24948  86.4004 335.2569 0002311  96.0490 264.0971 14.36539399387536
